     2.100          NAVIGATION                              RINEX VERSION / TYPE
fic2rin                                 10/14/2017 00:04:02 PGM / RUN BY / DATE
                                                            END OF HEADER
12 17 10 13  6  0  0.0  .369324348867D-03 -.159161572810D-11  .000000000000D+00
     .700000000000D+02  .758437500000D+02  .385587489838D-08  .292132083116D+01
     .379234552383D-05  .652990862727D-02  .741705298424D-05  .515371049500D+04
     .453600000000D+06  .130385160446D-07 -.654904792556D+00 -.968575477600D-07
     .988437518904D+00  .248343750000D+03  .912752028654D+00 -.773353641855D-08
     .792890169915D-10  .100000000000D+01  .197000000000D+04  .000000000000D+00
     .240000000000D+01  .000000000000D+00 -.125728547573D-07  .700000000000D+02
     .446406000000D+06  .400000000000D+01
13 17 10 13  6  0  0.0 -.927015207708D-04 -.454747350886D-12  .000000000000D+00
     .510000000000D+02  .132187500000D+02  .458411951841D-08 -.148691534564D+01
     .772997736931D-06  .353105249815D-02  .679120421410D-05  .515365304375D+04
     .453600000000D+06 -.558793544769D-07 -.269286681868D+01  .763684511185D-07
     .969408575415D+00  .253937500000D+03  .171835215153D+01 -.807319342377D-08
    -.478591363823D-10  .100000000000D+01  .197000000000D+04  .000000000000D+00
     .240000000000D+01  .000000000000D+00 -.116415321827D-07  .510000000000D+02
     .446406000000D+06  .400000000000D+01
14 17 10 13  6  0  0.0 -.860863365233D-04 -.909494701773D-12  .000000000000D+00
     .400000000000D+01  .198750000000D+02  .483270130141D-08 -.234310717239D+00
     .103004276752D-05  .931837968528D-02  .716000795364D-05  .515369647217D+04
     .453600000000D+06 -.763684511185D-07 -.273324499174D+01  .141561031342D-06
     .961955638319D+00  .246093750000D+03 -.194803894314D+01 -.829355974577D-08
     .571452374714D-10  .100000000000D+01  .197000000000D+04  .000000000000D+00
     .240000000000D+01  .000000000000D+00 -.977888703346D-08  .400000000000D+01
     .446406000000D+06  .400000000000D+01
15 17 10 13  6  0  0.0 -.356579199433D-03 -.227373675443D-12  .000000000000D+00
     .690000000000D+02  .175625000000D+02  .554130224605D-08 -.757395535581D+00
     .109151005745D-05  .973110762425D-02  .636838376522D-05  .515362111473D+04
     .453600000000D+06  .163912773132D-06 -.288616838726D+01  .122934579849D-06
     .929126851074D+00  .236250000000D+03  .614677716983D+00 -.863178812005D-08
     .628597612185D-10  .100000000000D+01  .197000000000D+04  .000000000000D+00
     .240000000000D+01  .000000000000D+00 -.107102096081D-07  .690000000000D+02
     .446406000000D+06  .400000000000D+01
16 17 10 13  6  0  0.0  .369125045836D-04 -.113686837722D-12  .000000000000D+00
     .570000000000D+02  .702812500000D+02  .394266422779D-08  .950296558660D+00
     .388547778130D-05  .931144796778D-02  .813044607639D-05  .515378254128D+04
     .453600000000D+06  .279396772385D-07 -.636026773937D+00  .670552253723D-07
     .988905993550D+00  .235093750000D+03  .458405462062D+00 -.799176146037D-08
    -.175007289756D-10  .100000000000D+01  .197000000000D+04  .000000000000D+00
     .240000000000D+01  .000000000000D+00 -.107102096081D-07  .570000000000D+02
     .446406000000D+06  .400000000000D+01
17 17 10 13  6  0  0.0 -.151302665472D-03  .227373675443D-11  .000000000000D+00
     .200000000000D+01 -.850000000000D+01  .432625163432D-08  .780571350044D-01
    -.391155481339D-06  .119670311688D-01  .439956784248D-05  .515369897461D+04
     .453600000000D+06 -.931322574615D-07  .379981741730D+00  .614672899246D-07
     .981296045845D+00  .307375000000D+03 -.184021883929D+01 -.838999233400D-08
    -.467876631797D-10  .100000000000D+01  .197000000000D+04  .000000000000D+00
     .240000000000D+01  .000000000000D+00 -.111758708954D-07  .200000000000D+01
     .446406000000D+06  .400000000000D+01
18 17 10 13  6  0  0.0  .631245318800D-03  .682121026330D-12  .000000000000D+00
     .300000000000D+01 -.186562500000D+02  .523450375238D-08  .156555236528D+01
    -.114738941193D-05  .181264462881D-01  .102613121271D-04  .515363327026D+04
     .453600000000D+06 -.206753611565D-06  .237641275828D+01 -.398606061935D-06
     .926067495845D+00  .163718750000D+03 -.177769340752D+01 -.839499254228D-08
     .359657838335D-09  .100000000000D+01  .197000000000D+04  .000000000000D+00
     .240000000000D+01  .000000000000D+00 -.111758708954D-07  .300000000000D+01
     .446406000000D+06  .400000000000D+01
19 17 10 13  6  0  0.0 -.481460243464D-03  .204636307899D-11  .000000000000D+00
     .500000000000D+02 -.205625000000D+02  .432053711057D-08  .305948155461D+01
    -.109523534775D-05  .994094775524D-02  .363960862160D-05  .515368426704D+04
     .453600000000D+06  .931322574615D-07  .427466216381D+00 -.230967998505D-06
     .978628612221D+00  .315437500000D+03  .108057635809D+01 -.805676416800D-08
    -.889322758148D-10  .100000000000D+01  .197000000000D+04  .000000000000D+00
     .240000000000D+01  .000000000000D+00 -.153668224812D-07  .500000000000D+02
     .446406000000D+06  .400000000000D+01
20 17 10 13  6  0  0.0  .489543657750D-03  .113686837722D-11  .000000000000D+00
     .300000000000D+01 -.800000000000D+01  .510949854541D-08 -.922977558314D+00
    -.322237610817D-06  .461139762774D-02  .102482736111D-04  .515374607468D+04
     .453600000000D+06 -.521540641785D-07  .232526797044D+01  .104308128357D-06
     .927427225535D+00  .164531250000D+03  .168401954595D+01 -.835070498324D-08
     .387873299337D-09  .100000000000D+01  .197000000000D+04  .000000000000D+00
     .240000000000D+01  .000000000000D+00 -.838190317154D-08  .300000000000D+01
     .446406000000D+06  .400000000000D+01
21 17 10 13  6  0  0.0 -.471607316285D-03  .329691829393D-11  .000000000000D+00
     .300000000000D+01 -.115968750000D+03  .478127058768D-08  .246796136562D+01
    -.596418976784D-05  .240027996479D-01  .739283859730D-05  .515359270859D+04
     .453600000000D+06  .284984707832D-06  .133629803713D+01 -.102445483208D-06
     .940935413165D+00  .220093750000D+03 -.163383417635D+01 -.787318509262D-08
    -.221080637467D-09  .100000000000D+01  .197000000000D+04  .000000000000D+00
     .240000000000D+01  .000000000000D+00 -.977888703346D-08  .300000000000D+01
     .446406000000D+06  .400000000000D+01
22 17 10 13  6  0  0.0 -.153132714331D-03 -.127329258248D-10  .000000000000D+00
     .850000000000D+02 -.191562500000D+02  .526414784432D-08 -.571166644869D+00
    -.886619091034D-06  .718930771109D-02  .994466245174D-05  .515370323181D+04
     .453600000000D+06 -.521540641785D-07  .237601962977D+01  .949949026108D-07
     .924162502941D+00  .170031250000D+03 -.166718701303D+01 -.844999483335D-08
     .310012913282D-09  .100000000000D+01  .197000000000D+04  .000000000000D+00
     .240000000000D+01  .000000000000D+00 -.176951289177D-07  .850000000000D+02
     .446406000000D+06  .400000000000D+01
23 17 10 13  6  0  0.0 -.218069646508D-03 -.227373675443D-12  .000000000000D+00
     .146000000000D+03  .265000000000D+02  .511271296502D-08 -.129779649244D+01
     .142306089401D-05  .118669912918D-01  .615231692791D-05  .515366221809D+04
     .453600000000D+06  .268220901489D-06 -.282062084908D+01  .000000000000D+00
     .944370330186D+00  .246500000000D+03 -.241796848239D+01 -.831784647169D-08
     .165721188667D-09  .100000000000D+01  .197000000000D+04  .000000000000D+00
     .340000000000D+01  .000000000000D+00 -.204890966415D-07  .146000000000D+03
     .446406000000D+06  .400000000000D+01
24 17 10 13  6  0  0.0 -.408259220421D-04 -.454747350886D-12  .000000000000D+00
     .600000000000D+02  .222187500000D+02  .501770900772D-08 -.182210198426D+01
     .935047864914D-06  .605484435800D-02  .821985304356D-05  .515366956711D+04
     .453600000000D+06  .949949026108D-07 -.179854151304D+01 -.726431608200D-07
     .943710536578D+00  .212000000000D+03  .470430053266D+00 -.820105589261D-08
    -.206437170365D-09  .100000000000D+01  .197000000000D+04  .000000000000D+00
     .340000000000D+01  .000000000000D+00  .279396772385D-08  .600000000000D+02
     .446406000000D+06  .400000000000D+01
25 17 10 13  6  0  0.0 -.471816863865D-03 -.636646291241D-11  .000000000000D+00
     .155000000000D+03  .827187500000D+02  .410695678552D-08  .248997896150D+01
     .418908894062D-05  .658546749037D-02  .768899917603D-05  .515374789238D+04
     .453600000000D+06 -.204890966415D-07 -.711875784781D+00 -.132247805595D-06
     .976214914424D+00  .238343750000D+03  .818369788501D+00 -.787139930395D-08
     .115719105880D-09  .100000000000D+01  .197000000000D+04  .000000000000D+00
     .240000000000D+01  .000000000000D+00  .558793544769D-08  .155000000000D+03
     .446406000000D+06  .400000000000D+01
26 17 10 13  6  0  0.0 -.398349948227D-03  .120508047985D-10  .000000000000D+00
     .860000000000D+02  .710937500000D+02  .462662128878D-08  .193848318858D+01
     .382587313652D-05  .198628380895D-02  .818446278572D-05  .515378840446D+04
     .453600000000D+06  .689178705215D-07 -.729753631179D+00  .763684511185D-07
     .957883967186D+00  .218437500000D+03 -.429964892164D-01 -.824141471657D-08
     .685742849656D-10  .100000000000D+01  .197000000000D+04  .000000000000D+00
     .340000000000D+01  .000000000000D+00  .745058059692D-08  .860000000000D+02
     .446406000000D+06  .400000000000D+01
27 17 10 13  6  0  0.0  .336477067322D-03  .432009983342D-11  .000000000000D+00
     .630000000000D+02 -.365625000000D+01  .447161483213D-08  .113625929776D+00
    -.251457095146D-06  .496480439324D-02  .363402068615D-05  .515367381477D+04
     .453600000000D+06 -.372529029846D-08  .327238473036D+00  .745058059692D-07
     .976156710765D+00  .314031250000D+03  .385339736250D+00 -.836606276581D-08
    -.453590322429D-10  .100000000000D+01  .197000000000D+04  .000000000000D+00
     .240000000000D+01  .000000000000D+00  .139698386192D-08  .630000000000D+02
     .446406000000D+06  .400000000000D+01
